satname,norad_id,inclination_deg,eccentricity,mean_motion_rev_per_day,perigee_km,apogee_km,l1,l2
STARLINK-1168,45072,53.0524,0.0001275,15.06397281,546.3369082905656,548.1028742978451,1 45072U 20006AE  25297.84860943  .00001413  00000+0  11377-3 0  9993,2 45072  53.0524 156.4334 0001275  86.9237 273.1898 15.06397281316263
STARLINK-1172,45074,53.055,0.0001589,15.06393031,546.13247572209,548.3333582817122,1 45074U 20006AG  25297.85966436  .00000508  00000+0  53028-4 0  9994,2 45074  53.0550 156.3864 0001589  89.6594 270.4577 15.06393031316268
STARLINK-1153,45080,53.0534,0.0001292,15.06442093,546.1878135936504,547.9772903258763,1 45080U 20006AN  25297.83751038  .00009583  00000+0  66063-3 0  9993,2 45080  53.0534 156.4836 0001292  92.3991 267.7146 15.06442093316264
STARLINK-1151,45081,53.0522,0.0001852,15.06398014,545.9350690687206,548.5002204291359,1 45081U 20006AP  25297.82280712  .00000441  00000+0  48525-4 0  9997,2 45081  53.0522 156.6216 0001852 106.0808 254.0385 15.06398014316265
STARLINK-1190,45083,53.0408,0.0003566,15.86450925,309.85660950664897,314.6281880938732,1 45083U 20006AR  25297.91671295  .00329260  00000+0  12356-2 0  9993,2 45083  53.0408 110.7562 0003566 193.0524 160.6734 15.86450925  5948
STARLINK-1173,45084,53.0349,0.0006511,16.13100185,234.04429591311236,242.66028826927322,1 45084U 20006AS  25297.80480455  .01077158  75347-3  91083-3 0  9990,2 45084  53.0349  71.3902 0006511 337.6957  22.3794 16.13100185317455
STARLINK-1185,45087,53.0553,0.0001184,15.06395508,546.4053624062062,548.0452882048394,1 45087U 20006AV  25297.79885020  .00001774  00000+0  13799-3 0  9996,2 45087  53.0553 136.6545 0001184  86.2727 273.8397 15.06395508316543
STARLINK-1183,45088,53.0518,0.0001251,15.0640177,546.3397727225592,548.072493574472,1 45088U 20006AW  25297.82096311  .00001263  00000+0  10367-3 0  9999,2 45088  53.0518 136.5566 0001251  99.3451 260.7679 15.06401770316548
STARLINK-1176,45090,53.0413,0.000766,16.06163804,252.30511443206797,262.47073861950685,1 45090U 20006AY  25297.66451457  .00656848  22485-3  86784-3 0  9996,2 45090  53.0413  70.7490 0007660 346.2812  13.8011 16.06163804317457
STARLINK-1142,45093,53.0344,0.0002712,15.59165193,388.23635114813624,391.90742764974675,1 45093U 20006BB  25297.91671295  .00173393  00000+0  21340-2 0  9991,2 45093  53.0344  71.9358 0002712 300.9665   9.5207 15.59165193  5953
STARLINK-1152,45096,53.0495,0.0008843,15.23163546,490.2264222277481,502.38456121860963,1 45096U 20006BE  25297.77003199  .00023351  00000+0  98560-3 0  9997,2 45096  53.0495 119.8116 0008843 143.3502 216.8101 15.23163546316779
STARLINK-1184,45098,53.0539,0.0001416,15.06396526,546.2415744049249,548.2028361318571,1 45098U 20006BG  25297.83571309  .00001478  00000+0  11814-3 0  9992,2 45098  53.0539 136.4907 0001416 104.6232 255.4914 15.06396526316545
STARLINK-1193,45100,53.0537,0.0001392,15.06397924,546.2539111816404,548.1819299915314,1 45100U 20006BJ  25297.83202398  .00001196  00000+0  99198-4 0  9994,2 45100  53.0537 136.5062 0001392  84.7646 275.3501 15.06397924316546
STARLINK-1143,45179,53.0548,0.0008446,15.39554641,441.6604532996307,453.19019317604307,1 45179U 20012B   25297.63858150  .00043179  00000+0  10845-2 0  9995,2 45179  53.0548 262.6980 0008446  25.0663 335.0749 15.39554641314822
STARLINK-1202,45183,53.0542,0.0001315,15.06397166,546.3095592761711,548.1309282312777,1 45183U 20012F   25297.69563444 -.00000547  00000+0 -17807-4 0  9996,2 45183  53.0542 297.1215 0001315  82.4916 277.6222 15.06397166314346
STARLINK-1216,45185,53.0545,0.0001467,15.06403791,546.1839921646824,548.2158860226127,1 45185U 20012H   25297.42287814  .00000866  00000+0  76999-4 0  9992,2 45185  53.0545 298.3460 0001467  99.0319 261.0836 15.06403791314244
STARLINK-1225,45187,53.0537,9.93e-05,15.06406953,546.502563080925,547.8779330723937,1 45187U 20012K   25297.70668854  .00001022  00000+0  87467-4 0  9999,2 45187  53.0537 297.0695 0000993  68.9092 291.2003 15.06406953314333
STARLINK-1230,45189,53.0542,0.0001573,15.06402957,546.1131392713978,548.2918510765785,1 45189U 20012M   25297.71037422  .00000434  00000+0  48001-4 0  9990,2 45189  53.0542 297.0551 0001573  77.2149 282.9015 15.06402957311565
STARLINK-1234,45190,53.053,0.0001243,15.34288513,462.18426549803553,463.8849807635452,1 45190U 20012N   25297.91671295  .00040088  00000+0  11954-2 0  9990,2 45190  53.0530 254.4746 0001243  62.0017   6.9617 15.34288513  5830
STARLINK-1269,45197,53.0536,0.0001229,15.06393955,546.3789574398397,548.0812126693472,1 45197U 20012V   25297.72144125 -.00000841  00000+0 -37609-4 0  9995,2 45197  53.0536 297.0067 0001229  90.2539 269.8591 15.06393955314311
STARLINK-1154,45198,53.0553,0.0001564,15.06411328,546.0937203828826,548.2599585518674,1 45198U 20012W   25297.64586662  .00002888  00000+0  21262-3 0  9991,2 45198  53.0553 277.3472 0001564  93.1188 266.9980 15.06411328314557
STARLINK-1199,45201,53.0537,0.0001355,15.06389613,546.3050037369785,548.1817818234222,1 45201U 20012Z   25297.65693301 -.00003084  00000+0 -18826-3 0  9999,2 45201  53.0537 277.2939 0001355  86.1677 273.9467 15.06389613314610
STARLINK-1209,45206,53.056,0.0001852,15.29991846,474.5672942854944,477.10600612553026,1 45206U 20012AE  25297.83336806  .00062694  00000+0  21245-2 0  9996,2 45206  53.0560 255.2137 0001852  90.4022  40.3868 15.29991846  5521
STARLINK-1210,45207,53.0252,0.0012562,15.54786119,394.25624537767544,411.29260724514097,1 45207U 20012AF  25297.83336806  .00159676  00000+0  23110-2 0  9997,2 45207  53.0252 218.6904 0012562  42.3717  20.4992 15.54786119  5904
STARLINK-1231,45212,53.0523,0.0005745,15.11734052,526.9422965946233,534.8807933728085,1 45212U 20012AL  25297.76397602  .00043421  00000+0  25198-2 0  9994,2 45212  53.0523 275.4160 0005745  18.1502 341.9693 15.11734052314605
STARLINK-1271,45217,53.0548,0.0001624,15.06408793,546.0599365615208,548.3092810200569,1 45217U 20012AR  25297.64219650  .00006353  00000+0  44492-3 0  9994,2 45217  53.0548 277.3589 0001624  82.0644 278.0529 15.06408793314615
STARLINK-1191,45222,53.0546,0.0001505,15.06401985,546.1632101634814,548.2477382482175,1 45222U 20012AW  25297.58505972  .00002184  00000+0  16546-3 0  9995,2 45222  53.0546 257.6158 0001505  94.3829 265.7332 15.06401985314881
STARLINK-1212,45223,53.0547,0.0002365,15.06401115,545.5702965002165,548.8459847517315,1 45223U 20012AX  25297.86896066  .00003974  00000+0  28551-3 0  9991,2 45223  53.0547 256.9990 0002365  91.3737 268.7523 15.06401115314924
STARLINK-1215,45225,53.0552,0.0001668,15.06396491,546.0671626054327,548.3774624720954,1 45225U 20012AZ  25297.62561463  .00002175  00000+0  16490-3 0  9998,2 45225  53.0552 257.4325 0001668  90.5575 269.5606 15.06396491314848
STARLINK-1221,45227,53.066,0.0001782,15.36486362,455.29121673689224,457.72708462499486,1 45227U 20012BB  25297.68545367  .00017679  00000+0  49893-3 0  9999,2 45227  53.0660 191.4337 0001782 330.3493  29.7408 15.36486362315769
STARLINK-1222,45228,53.0567,0.0001582,15.0639795,546.1222497643175,548.3134320359786,1 45228U 20012BC  25297.59243667  .00001499  00000+0  11949-3 0  9992,2 45228  53.0567 257.5834 0001582  98.3795 261.7373 15.06397950314776
STARLINK-1226,45229,53.0542,0.0001435,15.0639046,546.2470051047303,548.2345885324175,1 45229U 20012BD  25297.22385558  .00004636  00000+0  33000-3 0  9997,2 45229  53.0542 259.2357 0001435  80.6038 279.5113 15.06390460314723
STARLINK-1227,45230,53.0552,0.0001561,15.06392125,546.1546431067163,548.3167444617166,1 45230U 20012BE  25297.61822978 -.00002397  00000+0 -14210-3 0  9990,2 45230  53.0552 257.4653 0001561  99.0060 261.1105 15.06392125314902
STARLINK-1246,45235,53.0544,0.0001283,15.06393628,546.3425625437849,548.1196119949791,1 45235U 20012BK  25297.69931775 -.00001454  00000+0 -78754-4 0  9996,2 45235  53.0544 297.1023 0001283  87.7748 272.3388 15.06393628314364
STARLINK-1270,45237,53.0559,0.0001958,15.06389885,545.8865698122436,548.5985484475978,1 45237U 20012BM  25297.30493237 -.00000097  00000+0  12370-4 0  9995,2 45237  53.0559 258.8702 0001958 127.1344 232.9824 15.06389885314840
STARLINK-1279,45360,53.0578,8.09e-05,15.33103834,466.00469683696883,467.1121685579792,1 45360U 20019A   25297.83336806  .00098504  00000+0  30089-2 0  9999,2 45360  53.0578  25.1988 0000809  70.6233  91.8581 15.33103834  5827
STARLINK-1301,45361,53.0585,0.000161,15.33308187,464.8483659275389,467.0521620265399,1 45361U 20019B   25297.83336806  .01067750  00000+0  29962-1 0  9997,2 45361  53.0585  35.0334 0001610  45.4474 267.6411 15.33308187  5822
STARLINK-1306,45362,53.0478,0.0005945,15.67059622,363.3116300518532,371.33198057136997,1 45362U 20019C   25297.83336806  .00116565  00000+0  10618-2 0  9995,2 45362  53.0478  26.7670 0005945 267.6460  99.1692 15.67059622  5982
STARLINK-1262,45366,53.0567,0.0001326,15.06392867,546.3151155245578,548.1517237598464,1 45366U 20019G   25297.74724012 -.00000395  00000+0 -76488-5 0  9994,2 45366  53.0567  56.8834 0001326  94.9964 265.1176 15.06392867309242
STARLINK-1273,45367,53.0571,0.0001453,15.06389679,546.236932755709,548.2494482390675,1 45367U 20019H   25297.70300719 -.00001119  00000+0 -56264-4 0  9999,2 45367  53.0571  57.0872 0001453  90.4393 269.6763 15.06389679309238
STARLINK-1276,45368,53.0538,0.0001178,15.06386706,546.4364915734068,548.0681132930595,1 45368U 20019J   25297.73986160  .00001804  00000+0  14003-3 0  9996,2 45368  53.0538  56.9205 0001178  93.2727 266.8397 15.06386706309247
STARLINK-1277,45369,53.0565,0.0001161,15.06384884,546.4538483422357,548.0619250349246,1 45369U 20019K   25297.73259242 -.00000368  00000+0 -58132-5 0  9990,2 45369  53.0565  57.5808 0001161 100.0128 260.0992 15.06384884309239
STARLINK-1281,45370,53.0562,0.0001388,15.06389598,546.2821959486682,548.2046815584654,1 45370U 20019L   25297.59611411  .00000077  00000+0  24075-4 0  9999,2 45370  53.0562  57.5668 0001388  84.9473 275.1674 15.06389598309226
